TDRS 3                  
1 19548U 88091B   26087.10712557 -.00000312  00000+0  00000+0 0  9999
2 19548  12.6635 341.5377 0042543 354.8893 198.7533  1.00269546124578
HST                     
1 20580U 90037B   26087.60243902  .00009067  00000+0  29759-3 0  9999
2 20580  28.4720 270.9560 0001679 347.9689  12.0867 15.29770791776213
TDRS 5                  
1 21639U 91054B   26087.25558338  .00000072  00000+0  00000+0 0  9999
2 21639  14.0818 354.3784 0009589 279.2122 196.4212  1.00275572126907
TDRS 6                  
1 22314U 93003B   26087.29532245 -.00000308  00000+0  00000+0 0  9992
2 22314  14.1817 357.6591 0005032 185.6815  62.8575  1.00270087121592
TDRS 7                  
1 23613U 95035B   26087.61433652 -.00000251  00000+0  00000+0 0  9997
2 23613  13.4109 348.7430 0009215  53.9890  93.5255  1.00270142112443
ISS (ZARYA)             
1 25544U 98067A   26087.48736240  .00011758  00000+0  22419-3 0  9999
2 25544  51.6344 339.4313 0006231 242.6596 117.3758 15.48607800559243
TERRA                   
1 25994U 99068A   26087.63646833  .00000436  00000+0  97816-4 0  9990
2 25994  97.9553 140.3437 0003569 111.9893  49.4323 14.61034278397848
TDRS 8                  
1 26388U 00034A   26087.34762659 -.00000208  00000+0  00000+0 0  9998
2 26388  12.5576  31.9964 0005962 325.8250  37.9937  1.00271944 94373
TIMED                   
1 26998U 01055B   26087.58312241  .00001676  00000+0  15648-3 0  9990
2 26998  74.0688  37.2897 0002773 251.5104 108.5779 14.95083804318777
AQUA                    
1 27424U 02022A   26087.58697034  .00001029  00000+0  21489-3 0  9998
2 27424  98.4205  55.3007 0001125 117.9874  11.4525 14.62019053271497
SORCE                   
1 27651U 03004A   26087.16885975  .00003548  00000+0  26754-3 0  9996
2 27651  39.9926   3.7575 0017402 195.1511 164.8763 15.03234870259706
AURA                    
1 28376U 04026A   26087.59715971  .00001020  00000+0  21688-3 0  9995
2 28376  98.3340  43.4268 0001299  94.4221 265.7128 14.61190914154440
SWIFT                   
1 28485U 04047A   26087.21606171  .00051322  00000+0  57307-3 0  9996
2 28485  20.5537  86.0328 0003144 260.3075  99.7015 15.60974860174169
THEMIS A                
1 30580U 07004A   26086.78668654  .00000009  00000+0 -14309-2 0  9997
2 30580   7.1462 117.3649 8394020 182.7812 163.4262  0.87845702 40564
THEMIS D                
1 30797U 07004D   26087.55623341 -.00000048  00000+0  00000+0 0  9990
2 30797   6.9035  83.7133 8348099 219.2608  33.0857  0.87834989 40360
THEMIS E                
1 30798U 07004E   26081.10711733 -.00000102  00000+0  00000+0 0  9990
2 30798   4.4028  99.1325 8354244 204.1504 168.4350  0.87837115 65156
FGRST (GLAST)           
1 33053U 08029A   26087.54752061  .00004345  00000+0  16326-3 0  9992
2 33053  25.5832  44.2103 0008617  94.4393 265.7130 15.23470437983526
